CCSDS_OMM_VERS = 2.0
CREATION_DATE  = 
ORIGINATOR     = 

OBJECT_NAME    = MR-2
OBJECT_ID      = 2026-015A
CENTER_NAME    = EARTH
REF_FRAME      = TEME
TIME_SYSTEM    = UTC
MEAN_ELEMENT_THEORY = SGP/SGP4

EPOCH          = 2026-02-19T17:42:20.867328
MEAN_MOTION    = 13.52686768
ECCENTRICITY   = .00049947
INCLINATION    = 88.9961
RA_OF_ASC_NODE = 280.4883
ARG_OF_PERICENTER = 70.5884
MEAN_ANOMALY   = 289.5807

EPHEMERIS_TYPE = 0
CLASSIFICATION_TYPE = U
NORAD_CAT_ID   = 67556
ELEMENT_SET_NO = 999
REV_AT_EPOCH   = 383
BSTAR          = .81206664E-4
MEAN_MOTION_DOT = .66E-6
MEAN_MOTION_DDOT = 0

CCSDS_OMM_VERS = 2.0
CREATION_DATE  = 
ORIGINATOR     = 

OBJECT_NAME    = MR-1
OBJECT_ID      = 2026-015B
CENTER_NAME    = EARTH
REF_FRAME      = TEME
TIME_SYSTEM    = UTC
MEAN_ELEMENT_THEORY = SGP/SGP4

EPOCH          = 2026-02-19T17:43:05.465280
MEAN_MOTION    = 13.52661945
ECCENTRICITY   = .00050536
INCLINATION    = 88.9960
RA_OF_ASC_NODE = 280.4884
ARG_OF_PERICENTER = 69.4714
MEAN_ANOMALY   = 290.6980

EPHEMERIS_TYPE = 0
CLASSIFICATION_TYPE = U
NORAD_CAT_ID   = 67557
ELEMENT_SET_NO = 999
REV_AT_EPOCH   = 383
BSTAR          = .90423261E-4
MEAN_MOTION_DOT = .72E-6
MEAN_MOTION_DDOT = 0

CCSDS_OMM_VERS = 2.0
CREATION_DATE  = 
ORIGINATOR     = 

OBJECT_NAME    = ELECTRON R/B
OBJECT_ID      = 2026-015C
CENTER_NAME    = EARTH
REF_FRAME      = TEME
TIME_SYSTEM    = UTC
MEAN_ELEMENT_THEORY = SGP/SGP4

EPOCH          = 2026-02-20T02:05:59.017632
MEAN_MOTION    = 15.96592197
ECCENTRICITY   = .0200554
INCLINATION    = 88.9528
RA_OF_ASC_NODE = 279.5043
ARG_OF_PERICENTER = 161.5115
MEAN_ANOMALY   = 199.3602

EPHEMERIS_TYPE = 0
CLASSIFICATION_TYPE = U
NORAD_CAT_ID   = 67558
ELEMENT_SET_NO = 999
REV_AT_EPOCH   = 435
BSTAR          = .98486E-3
MEAN_MOTION_DOT = .6428351E-1
MEAN_MOTION_DDOT = -.16024E-5

CCSDS_OMM_VERS = 2.0
CREATION_DATE  = 
ORIGINATOR     = 

OBJECT_NAME    = ELECTRON KICK STAGE R/B
OBJECT_ID      = 2026-015D
CENTER_NAME    = EARTH
REF_FRAME      = TEME
TIME_SYSTEM    = UTC
MEAN_ELEMENT_THEORY = SGP/SGP4

EPOCH          = 2026-02-19T22:15:06.552288
MEAN_MOTION    = 14.68699790
ECCENTRICITY   = .05268047
INCLINATION    = 89.0490
RA_OF_ASC_NODE = 280.0120
ARG_OF_PERICENTER = 235.2966
MEAN_ANOMALY   = 119.7557

EPHEMERIS_TYPE = 0
CLASSIFICATION_TYPE = U
NORAD_CAT_ID   = 67559
ELEMENT_SET_NO = 999
REV_AT_EPOCH   = 418
BSTAR          = .77954126E-3
MEAN_MOTION_DOT = .46633E-3
MEAN_MOTION_DDOT = -.153748E-6

CCSDS_OMM_VERS = 2.0
CREATION_DATE  = 
ORIGINATOR     = 

OBJECT_NAME    = STARLINK-36426
OBJECT_ID      = 2026-014AA
CENTER_NAME    = EARTH
REF_FRAME      = TEME
TIME_SYSTEM    = UTC
MEAN_ELEMENT_THEORY = SGP/SGP4

EPOCH          = 2026-02-19T15:05:43.478880
MEAN_MOTION    = 15.75307850
ECCENTRICITY   = .00013371
INCLINATION    = 97.2832
RA_OF_ASC_NODE = 294.7223
ARG_OF_PERICENTER = 116.6663
MEAN_ANOMALY   = 243.4740

EPHEMERIS_TYPE = 0
CLASSIFICATION_TYPE = U
NORAD_CAT_ID   = 67560
ELEMENT_SET_NO = 999
REV_AT_EPOCH   = 572
BSTAR          = .18804889E-2
MEAN_MOTION_DOT = .291633E-2
MEAN_MOTION_DDOT = 0

CCSDS_OMM_VERS = 2.0
CREATION_DATE  = 
ORIGINATOR     = 

OBJECT_NAME    = STARLINK-36621
OBJECT_ID      = 2026-016A
CENTER_NAME    = EARTH
REF_FRAME      = TEME
TIME_SYSTEM    = UTC
MEAN_ELEMENT_THEORY = SGP/SGP4

EPOCH          = 2026-02-19T22:32:06.490464
MEAN_MOTION    = 15.75257470
ECCENTRICITY   = .00018376
INCLINATION    = 97.2819
RA_OF_ASC_NODE = 110.4667
ARG_OF_PERICENTER = 85.7615
MEAN_ANOMALY   = 274.3860

EPHEMERIS_TYPE = 0
CLASSIFICATION_TYPE = U
NORAD_CAT_ID   = 67561
ELEMENT_SET_NO = 999
REV_AT_EPOCH   = 400
BSTAR          = .20206785E-2
MEAN_MOTION_DOT = .313513E-2
MEAN_MOTION_DDOT = 0

CCSDS_OMM_VERS = 2.0
CREATION_DATE  = 
ORIGINATOR     = 

OBJECT_NAME    = STARLINK-36398
OBJECT_ID      = 2026-016B
CENTER_NAME    = EARTH
REF_FRAME      = TEME
TIME_SYSTEM    = UTC
MEAN_ELEMENT_THEORY = SGP/SGP4

EPOCH          = 2026-02-19T15:05:22.275456
MEAN_MOTION    = 15.75283861
ECCENTRICITY   = .0001405
INCLINATION    = 97.2821
RA_OF_ASC_NODE = 110.1211
ARG_OF_PERICENTER = 61.7573
MEAN_ANOMALY   = 298.3834

EPHEMERIS_TYPE = 0
CLASSIFICATION_TYPE = U
NORAD_CAT_ID   = 67562
ELEMENT_SET_NO = 999
REV_AT_EPOCH   = 395
BSTAR          = .19439E-2
MEAN_MOTION_DOT = .301518E-2
MEAN_MOTION_DDOT = 0

CCSDS_OMM_VERS = 2.0
CREATION_DATE  = 
ORIGINATOR     = 

OBJECT_NAME    = STARLINK-36403
OBJECT_ID      = 2026-016C
CENTER_NAME    = EARTH
REF_FRAME      = TEME
TIME_SYSTEM    = UTC
MEAN_ELEMENT_THEORY = SGP/SGP4

EPOCH          = 2026-02-19T15:36:03.399840
MEAN_MOTION    = 15.80815500
ECCENTRICITY   = .0001595
INCLINATION    = 97.2838
RA_OF_ASC_NODE = 110.2488
ARG_OF_PERICENTER = 137.1848
MEAN_ANOMALY   = 222.9545

EPHEMERIS_TYPE = 0
CLASSIFICATION_TYPE = U
NORAD_CAT_ID   = 67563
ELEMENT_SET_NO = 999
REV_AT_EPOCH   = 396
BSTAR          = .13654E-2
MEAN_MOTION_DOT = .269642E-2
MEAN_MOTION_DDOT = 0

CCSDS_OMM_VERS = 2.0
CREATION_DATE  = 
ORIGINATOR     = 

OBJECT_NAME    = STARLINK-36593
OBJECT_ID      = 2026-016D
CENTER_NAME    = EARTH
REF_FRAME      = TEME
TIME_SYSTEM    = UTC
MEAN_ELEMENT_THEORY = SGP/SGP4

EPOCH          = 2026-02-19T22:00:03.000096
MEAN_MOTION    = 15.75190440
ECCENTRICITY   = .00017965
INCLINATION    = 97.2841
RA_OF_ASC_NODE = 110.5276
ARG_OF_PERICENTER = 82.6568
MEAN_ANOMALY   = 343.3351

EPHEMERIS_TYPE = 0
CLASSIFICATION_TYPE = U
NORAD_CAT_ID   = 67564
ELEMENT_SET_NO = 999
REV_AT_EPOCH   = 513
BSTAR          = -.27737027E-3
MEAN_MOTION_DOT = -.41305E-3
MEAN_MOTION_DDOT = 0

CCSDS_OMM_VERS = 2.0
CREATION_DATE  = 
ORIGINATOR     = 

OBJECT_NAME    = STARLINK-35725
OBJECT_ID      = 2026-016E
CENTER_NAME    = EARTH
REF_FRAME      = TEME
TIME_SYSTEM    = UTC
MEAN_ELEMENT_THEORY = SGP/SGP4

EPOCH          = 2026-02-19T22:14:18.711744
MEAN_MOTION    = 15.75259086
ECCENTRICITY   = .00008923
INCLINATION    = 97.2821
RA_OF_ASC_NODE = 110.4844
ARG_OF_PERICENTER = 146.3064
MEAN_ANOMALY   = 213.8258

EPHEMERIS_TYPE = 0
CLASSIFICATION_TYPE = U
NORAD_CAT_ID   = 67565
ELEMENT_SET_NO = 999
REV_AT_EPOCH   = 400
BSTAR          = .19237933E-2
MEAN_MOTION_DOT = .297952E-2
MEAN_MOTION_DDOT = 0

CCSDS_OMM_VERS = 2.0
CREATION_DATE  = 
ORIGINATOR     = 

OBJECT_NAME    = STARLINK-36394
OBJECT_ID      = 2026-016F
CENTER_NAME    = EARTH
REF_FRAME      = TEME
TIME_SYSTEM    = UTC
MEAN_ELEMENT_THEORY = SGP/SGP4

EPOCH          = 2026-02-19T22:16:51.227616
MEAN_MOTION    = 15.75250365
ECCENTRICITY   = .00009196
INCLINATION    = 97.2831
RA_OF_ASC_NODE = 110.4789
ARG_OF_PERICENTER = 111.7359
MEAN_ANOMALY   = 248.4005

EPHEMERIS_TYPE = 0
CLASSIFICATION_TYPE = U
NORAD_CAT_ID   = 67566
ELEMENT_SET_NO = 999
REV_AT_EPOCH   = 400
BSTAR          = .15310812E-2
MEAN_MOTION_DOT = .235258E-2
MEAN_MOTION_DDOT = 0

CCSDS_OMM_VERS = 2.0
CREATION_DATE  = 
ORIGINATOR     = 

OBJECT_NAME    = STARLINK-36352
OBJECT_ID      = 2026-016G
CENTER_NAME    = EARTH
REF_FRAME      = TEME
TIME_SYSTEM    = UTC
MEAN_ELEMENT_THEORY = SGP/SGP4

EPOCH          = 2026-02-19T15:29:01.733280
MEAN_MOTION    = 15.81040923
ECCENTRICITY   = .00016672
INCLINATION    = 97.2841
RA_OF_ASC_NODE = 110.2525
ARG_OF_PERICENTER = 54.7487
MEAN_ANOMALY   = 305.3937

EPHEMERIS_TYPE = 0
CLASSIFICATION_TYPE = U
NORAD_CAT_ID   = 67567
ELEMENT_SET_NO = 999
REV_AT_EPOCH   = 396
BSTAR          = .24396658E-2
MEAN_MOTION_DOT = .500084E-2
MEAN_MOTION_DDOT = 0

