MR-2                    
1 67556U 26015A   26050.73774152  .00000066  00000+0  81207-4 0  9995
2 67556  88.9961 280.4883 0004994  70.5884 289.5807 13.52686768  3838
MR-1                    
1 67557U 26015B   26050.73825770  .00000072  00000+0  90423-4 0  9996
2 67557  88.9960 280.4884 0005053  69.4714 290.6980 13.52661945  3830
ELECTRON R/B            
1 67558U 26015C   26051.08748863  .06428351 -16024-5  98486-3 0  9999
2 67558  88.9528 279.5043 0200554 161.5115 199.3602 15.96592197  4355
ELECTRON KICK STAGE R/B 
1 67559U 26015D   26050.92715917  .00046633 -15375-6  77954-3 0  9995
2 67559  89.0490 280.0120 0526804 235.2966 119.7557 14.68699790  4182
STARLINK-36426          
1 67560U 26014AA  26050.62897545  .00291633  00000+0  18805-2 0  9993
2 67560  97.2832 294.7223 0001337 116.6663 243.4740 15.75307850  5728
STARLINK-36621          
1 67561U 26016A   26050.93896401  .00313513  00000+0  20207-2 0  9991
2 67561  97.2819 110.4667 0001837  85.7615 274.3860 15.75257470  4006
STARLINK-36398          
1 67562U 26016B   26050.62873004  .00301518  00000+0  19439-2 0  9999
2 67562  97.2821 110.1211 0001405  61.7573 298.3834 15.75283861  3953
STARLINK-36403          
1 67563U 26016C   26050.65003935  .00269642  00000+0  13654-2 0  9995
2 67563  97.2838 110.2488 0001595 137.1848 222.9545 15.80815500  3962
STARLINK-36593          
1 67564U 26016D   26050.91670139 -.00041305  00000+0 -27737-3 0  9995
2 67564  97.2841 110.5276 0001796  82.6568 343.3351 15.75190440  5138
STARLINK-35725          
1 67565U 26016E   26050.92660546  .00297952  00000+0  19238-2 0  9993
2 67565  97.2821 110.4844 0000892 146.3064 213.8258 15.75259086  4006
STARLINK-36394          
1 67566U 26016F   26050.92837069  .00235258  00000+0  15311-2 0  9999
2 67566  97.2831 110.4789 0000919 111.7359 248.4005 15.75250365  4004
STARLINK-36352          
1 67567U 26016G   26050.64515895  .00500084  00000+0  24397-2 0  9995
2 67567  97.2841 110.2525 0001667  54.7487 305.3937 15.81040923  3966
